[
    {
        "CCSDS_OMM_VERS": "3.0",
        "COMMENT": "GENERATED VIA SPACE-TRACK.ORG API",
        "CREATION_DATE": "2025-03-02T18:08:23",
        "ORIGINATOR": "18 SPCS",
        "OBJECT_NAME": "BEIDOU 3M21",
        "OBJECT_ID": "2019-078A",
        "CENTER_NAME": "EARTH",
        "REF_FRAME": "TEME",
        "TIME_SYSTEM": "UTC",
        "MEAN_ELEMENT_THEORY": "SGP4",
        "EPOCH": "2025-03-02T02:27:35.028864",
        "MEAN_MOTION": "1.86231863",
        "ECCENTRICITY": "0.00071430",
        "INCLINATION": "54.3555",
        "RA_OF_ASC_NODE": "316.3840",
        "ARG_OF_PERICENTER": "26.4396",
        "MEAN_ANOMALY": "333.6542",
        "EPHEMERIS_TYPE": "0",
        "CLASSIFICATION_TYPE": "U",
        "NORAD_CAT_ID": "44793",
        "ELEMENT_SET_NO": "999",
        "REV_AT_EPOCH": "3585",
        "BSTAR": "0.00000000000000",
        "MEAN_MOTION_DOT": "-0.00000054",
        "MEAN_MOTION_DDOT": "0.0000000000000",
        "SEMIMAJOR_AXIS": "27906.102",
        "PERIOD": "773.230",
        "APOAPSIS": "21547.901",
        "PERIAPSIS": "21508.034",
        "OBJECT_TYPE": "PAYLOAD",
        "RCS_SIZE": "LARGE",
        "COUNTRY_CODE": "PRC",
        "LAUNCH_DATE": "2019-11-23",
        "SITE": "XSC",
        "DECAY_DATE": null,
        "FILE": "4657142",
        "GP_ID": "282087958",
        "TLE_LINE0": "0 BEIDOU 3M21",
        "TLE_LINE1": "1 44793U 19078A   25061.10248876 -.00000054  00000-0  00000-0 0  9992",
        "TLE_LINE2": "2 44793  54.3555 316.3840 0007143  26.4396 333.6542  1.86231863 35851"
    }
]